[{"OBJECT_NAME":"SHIYAN-1 (SY-1)","OBJECT_ID":"2004-012A","EPOCH":"2026-03-09T17:40:34.066560","MEAN_MOTION":15.31043463,"ECCENTRICITY":0.00058726,"INCLINATION":97.8764,"RA_OF_ASC_NODE":140.5238,"ARG_OF_PERICENTER":23.6952,"MEAN_ANOMALY":336.4557,"EPHEMERIS_TYPE":0,"CLASSIFICATION_TYPE":"U","NORAD_CAT_ID":28220,"ELEMENT_SET_NO":999,"REV_AT_EPOCH":19586,"BSTAR":0.00054854449,"MEAN_MOTION_DOT":0.00016393,"MEAN_MOTION_DDOT":0},{"OBJECT_NAME":"STARLINK-33832","OBJECT_ID":"2025-083D","EPOCH":"2026-03-09T04:29:22.441056","MEAN_MOTION":15.27582994,"ECCENTRICITY":7.454e-5,"INCLINATION":42.9997,"RA_OF_ASC_NODE":7.737,"ARG_OF_PERICENTER":305.0469,"MEAN_ANOMALY":55.0313,"EPHEMERIS_TYPE":0,"CLASSIFICATION_TYPE":"U","NORAD_CAT_ID":63637,"ELEMENT_SET_NO":999,"REV_AT_EPOCH":4999,"BSTAR":0.0012756079,"MEAN_MOTION_DOT":0.0003501,"MEAN_MOTION_DDOT":0}]
