SHIYAN-1 (SY-1)         
1 28220U 04012A   26068.73650539  .00016393  00000+0  54854-3 0  9991
2 28220  97.8764 140.5238 0005873  23.6952 336.4557 15.31043463195862
STARLINK-33832          
1 63637U 25083D   26068.18706529  .00035010  00000+0  12756-2 0  9994
2 63637  42.9997   7.7370 0000745 305.0469  55.0313 15.27582994 49994
